JILIN-1 KUANFU 01       
1 45016U 20003A   26197.82494856  .00001585  00000+0  99026-4 0  9990
2 45016  97.5020 271.2027 0009408 190.9658 169.1369 15.10872353359806
JILIN-1 KUANFU-01B      
1 49003U 21061A   26197.86481549  .00001135  00000+0  74127-4 0  9990
2 49003  97.5209 273.5066 0005812 332.1639  27.9278 15.09812953277826
JILIN-1 KUANFU 01C      
1 52443U 22048A   26197.85692944  .00001181  00000+0  77226-4 0  9994
2 52443  97.5250 274.4892 0017435 214.1717 145.8392 15.09604395231670
JILIN-1 KUANFU 02A      
1 57696U 23127A   26197.80866492  .00002690  00000+0  16559-3 0  9991
2 57696  97.5571 291.2536 0010409 230.5851 129.4458 15.10819979160106
JILIN-01 KUANFU 02B 1   
1 61189U 24169A   26197.82427378  .00001555  00000+0  10217-3 0  9992
2 61189  97.5577 286.8925 0001402 334.3349  25.7810 15.09063157100295
JILIN-01 KUANFU 02B 2   
1 61190U 24169B   26197.87024872  .00001873  00000+0  12236-3 0  9997
2 61190  97.5570 286.3223 0004827 271.6700  88.3976 15.09024668100308
JILIN-01 KUANFU 02B 3   
1 61191U 24169C   26197.81284481  .00001729  00000+0  11299-3 0  9994
2 61191  97.5567 286.6987 0013180 200.0915 159.9797 15.09062901100297
JILIN-01 KUANFU 02B 4   
1 61192U 24169D   26197.84794538  .00002194  00000+0  14230-3 0  9992
2 61192  97.5534 286.2588 0014200 158.1877 201.9959 15.09051754100303
JILIN-01 KUANFU 02B 5   
1 61193U 24169E   26197.83493997  .00001658  00000+0  10850-3 0  9995
2 61193  97.5578 287.0440 0013323 181.7973 178.3210 15.09081820100306
JILIN-01 KUANFU 02B 6   
1 61194U 24169F   26197.85861985  .00002120  00000+0  13765-3 0  9997
2 61194  97.5559 286.9592 0015752 215.2703 144.7485 15.09041094100315
