{"fetched_at":"2026-07-17T06:38:21.744Z","source":"https://celestrak.org/NORAD/elements/gp.php?NAME=JILIN&FORMAT=JSON","constellation":"jilin-1-kuanfu","records":[{"OBJECT_NAME":"JILIN-1 KUANFU 01","OBJECT_ID":"2020-003A","EPOCH":"2026-07-16T19:47:55.555584","CLASSIFICATION_TYPE":"U","MEAN_MOTION":15.10872353,"ECCENTRICITY":0.0009408,"INCLINATION":97.502,"RA_OF_ASC_NODE":271.2027,"ARG_OF_PERICENTER":190.9658,"MEAN_ANOMALY":169.1369,"EPHEMERIS_TYPE":0,"NORAD_CAT_ID":45016,"ELEMENT_SET_NO":999,"REV_AT_EPOCH":35980,"BSTAR":0.000099026,"MEAN_MOTION_DOT":0.00001585,"MEAN_MOTION_DDOT":0},{"OBJECT_NAME":"JILIN-1 KUANFU-01B","OBJECT_ID":"2021-061A","EPOCH":"2026-07-16T20:45:20.058336","CLASSIFICATION_TYPE":"U","MEAN_MOTION":15.09812953,"ECCENTRICITY":0.0005812,"INCLINATION":97.5209,"RA_OF_ASC_NODE":273.5066,"ARG_OF_PERICENTER":332.1639,"MEAN_ANOMALY":27.9278,"EPHEMERIS_TYPE":0,"NORAD_CAT_ID":49003,"ELEMENT_SET_NO":999,"REV_AT_EPOCH":27782,"BSTAR":0.000074127,"MEAN_MOTION_DOT":0.00001135,"MEAN_MOTION_DDOT":0},{"OBJECT_NAME":"JILIN-1 KUANFU 01C","OBJECT_ID":"2022-048A","EPOCH":"2026-07-16T20:33:58.703616","CLASSIFICATION_TYPE":"U","MEAN_MOTION":15.09604395,"ECCENTRICITY":0.0017435,"INCLINATION":97.525,"RA_OF_ASC_NODE":274.4892,"ARG_OF_PERICENTER":214.1717,"MEAN_ANOMALY":145.8392,"EPHEMERIS_TYPE":0,"NORAD_CAT_ID":52443,"ELEMENT_SET_NO":999,"REV_AT_EPOCH":23167,"BSTAR":0.000077226,"MEAN_MOTION_DOT":0.00001181,"MEAN_MOTION_DDOT":0},{"OBJECT_NAME":"JILIN-1 KUANFU 02A","OBJECT_ID":"2023-127A","EPOCH":"2026-07-16T19:24:28.649088","CLASSIFICATION_TYPE":"U","MEAN_MOTION":15.10819979,"ECCENTRICITY":0.0010409,"INCLINATION":97.5571,"RA_OF_ASC_NODE":291.2536,"ARG_OF_PERICENTER":230.5851,"MEAN_ANOMALY":129.4458,"EPHEMERIS_TYPE":0,"NORAD_CAT_ID":57696,"ELEMENT_SET_NO":999,"REV_AT_EPOCH":16010,"BSTAR":0.00016559,"MEAN_MOTION_DOT":0.0000269,"MEAN_MOTION_DDOT":0},{"OBJECT_NAME":"JILIN-01 KUANFU 02B 1","OBJECT_ID":"2024-169A","EPOCH":"2026-07-16T19:46:57.254592","CLASSIFICATION_TYPE":"U","MEAN_MOTION":15.09063157,"ECCENTRICITY":0.0001402,"INCLINATION":97.5577,"RA_OF_ASC_NODE":286.8925,"ARG_OF_PERICENTER":334.3349,"MEAN_ANOMALY":25.781,"EPHEMERIS_TYPE":0,"NORAD_CAT_ID":61189,"ELEMENT_SET_NO":999,"REV_AT_EPOCH":10029,"BSTAR":0.00010217,"MEAN_MOTION_DOT":0.00001555,"MEAN_MOTION_DDOT":0},{"OBJECT_NAME":"JILIN-01 KUANFU 02B 2","OBJECT_ID":"2024-169B","EPOCH":"2026-07-16T20:53:09.489408","CLASSIFICATION_TYPE":"U","MEAN_MOTION":15.09024668,"ECCENTRICITY":0.0004827,"INCLINATION":97.557,"RA_OF_ASC_NODE":286.3223,"ARG_OF_PERICENTER":271.67,"MEAN_ANOMALY":88.3976,"EPHEMERIS_TYPE":0,"NORAD_CAT_ID":61190,"ELEMENT_SET_NO":999,"REV_AT_EPOCH":10030,"BSTAR":0.00012236,"MEAN_MOTION_DOT":0.00001873,"MEAN_MOTION_DDOT":0},{"OBJECT_NAME":"JILIN-01 KUANFU 02B 3","OBJECT_ID":"2024-169C","EPOCH":"2026-07-16T19:30:29.791584","CLASSIFICATION_TYPE":"U","MEAN_MOTION":15.09062901,"ECCENTRICITY":0.001318,"INCLINATION":97.5567,"RA_OF_ASC_NODE":286.6987,"ARG_OF_PERICENTER":200.0915,"MEAN_ANOMALY":159.9797,"EPHEMERIS_TYPE":0,"NORAD_CAT_ID":61191,"ELEMENT_SET_NO":999,"REV_AT_EPOCH":10029,"BSTAR":0.00011299,"MEAN_MOTION_DOT":0.00001729,"MEAN_MOTION_DDOT":0},{"OBJECT_NAME":"JILIN-01 KUANFU 02B 4","OBJECT_ID":"2024-169D","EPOCH":"2026-07-16T20:21:02.480832","CLASSIFICATION_TYPE":"U","MEAN_MOTION":15.09051754,"ECCENTRICITY":0.00142,"INCLINATION":97.5534,"RA_OF_ASC_NODE":286.2588,"ARG_OF_PERICENTER":158.1877,"MEAN_ANOMALY":201.9959,"EPHEMERIS_TYPE":0,"NORAD_CAT_ID":61192,"ELEMENT_SET_NO":999,"REV_AT_EPOCH":10030,"BSTAR":0.0001423,"MEAN_MOTION_DOT":0.00002194,"MEAN_MOTION_DDOT":0},{"OBJECT_NAME":"JILIN-01 KUANFU 02B 5","OBJECT_ID":"2024-169E","EPOCH":"2026-07-16T20:02:18.813408","CLASSIFICATION_TYPE":"U","MEAN_MOTION":15.0908182,"ECCENTRICITY":0.0013323,"INCLINATION":97.5578,"RA_OF_ASC_NODE":287.044,"ARG_OF_PERICENTER":181.7973,"MEAN_ANOMALY":178.321,"EPHEMERIS_TYPE":0,"NORAD_CAT_ID":61193,"ELEMENT_SET_NO":999,"REV_AT_EPOCH":10030,"BSTAR":0.0001085,"MEAN_MOTION_DOT":0.00001658,"MEAN_MOTION_DDOT":0},{"OBJECT_NAME":"JILIN-01 KUANFU 02B 6","OBJECT_ID":"2024-169F","EPOCH":"2026-07-16T20:36:24.755040","CLASSIFICATION_TYPE":"U","MEAN_MOTION":15.09041094,"ECCENTRICITY":0.0015752,"INCLINATION":97.5559,"RA_OF_ASC_NODE":286.9592,"ARG_OF_PERICENTER":215.2703,"MEAN_ANOMALY":144.7485,"EPHEMERIS_TYPE":0,"NORAD_CAT_ID":61194,"ELEMENT_SET_NO":999,"REV_AT_EPOCH":10031,"BSTAR":0.00013765,"MEAN_MOTION_DOT":0.0000212,"MEAN_MOTION_DDOT":0}]}
